     2              NAVIGATION DATA                         RINEX VERSION / TYPE
CCRINEXN V1.6.0 UX  CDDIS               08-JUN-24 05:26     PGM / RUN BY / DATE 
IGS BROADCAST EPHEMERIS FILE                                COMMENT             
    0.2142D-07  0.2235D-07 -0.1192D-06 -0.5960D-07          ION ALPHA           
    0.1290D+06  0.1311D+06 -0.1966D+06 -0.6554D+05          ION BETA            
    0.651925802231D-08 0.177635683940D-13   147456     2318 DELTA-UTC: A0,A1,T,W
    18                                                      LEAP SECONDS        
                                                            END OF HEADER       
 3 24  6  8  4  0  0.0 0.403112731874D-03 0.184172677109D-10 0.000000000000D+00
    0.240000000000D+02-0.144281250000D+03 0.379837250318D-08 0.605533567589D+00
   -0.771880149841D-05 0.557584152557D-02 0.696443021297D-05 0.515372253799D+04
    0.532800000000D+06-0.372529029846D-07 0.294479883183D+01 0.502914190292D-07
    0.984951864959D+00 0.257656250000D+03 0.109415205793D+01-0.784282668521D-08
   -0.871464871438D-10 0.100000000000D+01 0.231700000000D+04 0.000000000000D+00
    0.200000000000D+01 0.000000000000D+00 0.139698386192D-08 0.240000000000D+02
    0.525828000000D+06 0.400000000000D+01 0.000000000000D+00 0.000000000000D+00
 4 24  6  8  4  0  0.0 0.378517434001D-03 0.818545231596D-11 0.000000000000D+00
    0.205000000000D+03-0.340000000000D+02 0.442732727309D-08-0.269707429103D+01
   -0.174343585968D-05 0.283628422767D-02 0.103246420622D-04 0.515373992920D+04
    0.532800000000D+06-0.838190317154D-07-0.226042722503D+01-0.242143869400D-07
    0.964977005954D+00 0.186406250000D+03-0.295281797382D+01-0.766603360679D-08
    0.658241704123D-09 0.100000000000D+01 0.231700000000D+04 0.000000000000D+00
    0.200000000000D+01 0.000000000000D+00-0.465661287308D-08 0.973000000000D+03
    0.527868000000D+06 0.400000000000D+01 0.000000000000D+00 0.000000000000D+00
 5 24  6  8  4  0  0.0-0.175553373992D-03-0.136424205266D-11 0.000000000000D+00
    0.930000000000D+02-0.141218750000D+03 0.405909764914D-08-0.199877806234D+01
   -0.726990401745D-05 0.590024411213D-02 0.507757067680D-05 0.515362963486D+04
    0.532800000000D+06 0.117346644402D-06 0.289332336306D+01 0.186264514923D-08
    0.971880842601D+00 0.279343750000D+03 0.125894433458D+01-0.782532595624D-08
   -0.214294640518D-11 0.100000000000D+01 0.231700000000D+04 0.000000000000D+00
    0.200000000000D+01 0.000000000000D+00-0.107102096081D-07 0.930000000000D+02
    0.525618000000D+06 0.400000000000D+01 0.000000000000D+00 0.000000000000D+00
 7 24  6  8  4  0  0.0-0.994391739368D-04 0.115960574476D-10 0.000000000000D+00
    0.810000000000D+02 0.593750000000D+00 0.541058251534D-08 0.106663100958D+01
    0.154599547386D-06 0.186012360500D-01 0.580027699471D-05 0.515362238121D+04
    0.532800000000D+06-0.268220901489D-06-0.124738465581D+01 0.128522515297D-06
    0.949793170012D+00 0.270468750000D+03-0.211755690747D+01-0.848999649958D-08
   -0.137505727665D-09 0.100000000000D+01 0.231700000000D+04 0.000000000000D+00
    0.200000000000D+01 0.000000000000D+00-0.111758708954D-07 0.810000000000D+02
    0.525618000000D+06 0.400000000000D+01 0.000000000000D+00 0.000000000000D+00
 8 24  6  8  4  0  0.0 0.219145324081D-03 0.186446413863D-10 0.000000000000D+00
    0.770000000000D+02 0.142875000000D+03 0.425874882255D-08-0.236722577319D+01
    0.737234950066D-05 0.945787748788D-02 0.726804137230D-05 0.515364563751D+04
    0.532800000000D+06-0.316649675369D-07 0.811893191227D+00-0.763684511185D-07
    0.953199017388D+00 0.237906250000D+03 0.365509929961D+00-0.781282543554D-08
    0.101789954246D-09 0.100000000000D+01 0.231700000000D+04 0.000000000000D+00
    0.200000000000D+01 0.000000000000D+00 0.465661287308D-08 0.770000000000D+02
    0.525618000000D+06 0.400000000000D+01 0.000000000000D+00 0.000000000000D+00
 9 24  6  8  4  0  0.0 0.226416625083D-03 0.144382283907D-10 0.000000000000D+00
    0.890000000000D+02-0.426875000000D+02 0.455947563475D-08-0.189194155878D+01
   -0.206567347050D-05 0.274133495987D-02 0.103991478682D-04 0.515365404701D+04
    0.532800000000D+06-0.447034835815D-07-0.232003708155D+01 0.968575477600D-07
    0.958631829926D+00 0.180687500000D+03 0.197536652935D+01-0.773282210308D-08
    0.641098132882D-09 0.100000000000D+01 0.231700000000D+04 0.000000000000D+00
    0.200000000000D+01 0.000000000000D+00 0.931322574616D-09 0.890000000000D+02
    0.532566000000D+06 0.400000000000D+01 0.000000000000D+00 0.000000000000D+00
10 24  6  8  4  0  0.0-0.382903963327D-04-0.784439180279D-11 0.000000000000D+00
    0.860000000000D+02-0.128687500000D+03 0.382908806832D-08-0.387551549889D+00
   -0.663474202156D-05 0.934490398504D-02 0.661797821522D-05 0.515369382477D+04
    0.532800000000D+06 0.745058059692D-08 0.294223489089D+01 0.149011611938D-06
    0.984612209028D+00 0.266625000000D+03-0.237237494493D+01-0.785818446778D-08
   -0.160720980388D-10 0.100000000000D+01 0.231700000000D+04 0.000000000000D+00
    0.200000000000D+01 0.000000000000D+00 0.232830643654D-08 0.860000000000D+02
    0.525618000000D+06 0.400000000000D+01 0.000000000000D+00 0.000000000000D+00
11 24  6  8  4  0  0.0-0.680714379996D-03-0.841282599140D-11 0.000000000000D+00
    0.128000000000D+03 0.130625000000D+02 0.439804033889D-08-0.306236153122D+01
    0.758096575737D-06 0.133716361597D-02-0.532716512680D-06 0.515372063065D+04
    0.532800000000D+06-0.298023223877D-07 0.194118413326D+01 0.745058059692D-08
    0.966026648213D+00 0.393031250000D+03-0.258682264471D+01-0.834641909043D-08
    0.139291516337D-09 0.100000000000D+01 0.231700000000D+04 0.000000000000D+00
    0.200000000000D+01 0.000000000000D+00-0.884756445885D-08 0.384000000000D+03
    0.525618000000D+06 0.400000000000D+01 0.000000000000D+00 0.000000000000D+00
12 24  6  8  4  0  0.0-0.512242782861D-03-0.318323145621D-11 0.000000000000D+00
    0.340000000000D+02 0.221875000000D+02 0.436232456547D-08 0.332964767422D+00
    0.116042792797D-05 0.875195860863D-02 0.995211303234D-05 0.515364155388D+04
    0.532800000000D+06-0.189989805222D-06-0.131741684690D+00-0.316649675369D-07
    0.962681045267D+00 0.190156250000D+03 0.145251356889D+01-0.785175562857D-08
   -0.736459247912D-09 0.100000000000D+01 0.231700000000D+04 0.000000000000D+00
    0.200000000000D+01 0.000000000000D+00-0.125728547573D-07 0.340000000000D+02
    0.525628000000D+06 0.400000000000D+01 0.000000000000D+00 0.000000000000D+00
13 24  6  8  4  0  0.0 0.656384509057D-03 0.261479726760D-11 0.000000000000D+00
    0.230000000000D+02-0.300000000000D+02 0.431482258682D-08-0.263622943175D+01
   -0.168196856976D-05 0.812489888631D-02 0.926852226257D-05 0.515365471840D+04
    0.532800000000D+06 0.171363353729D-06-0.215395809677D+01-0.111758708954D-06
    0.971407467180D+00 0.205343750000D+03 0.924594842046D+00-0.754352850396D-08
    0.667170647478D-09 0.100000000000D+01 0.231700000000D+04 0.000000000000D+00
    0.200000000000D+01 0.000000000000D+00-0.111758708954D-07 0.230000000000D+02
    0.525618000000D+06 0.400000000000D+01 0.000000000000D+00 0.000000000000D+00
14 24  6  8  4  0  0.0 0.420174561441D-03 0.920863385545D-11 0.000000000000D+00
    0.270000000000D+02 0.241562500000D+02 0.477591322167D-08 0.305724561307D+00
    0.112876296043D-05 0.456660112832D-02 0.905431807041D-05 0.515369830894D+04
    0.532800000000D+06 0.502914190292D-07-0.176332219185D+00 0.372529029846D-08
    0.945979875082D+00 0.193718750000D+03-0.289959009157D+01-0.798140388608D-08
   -0.780032491484D-09 0.100000000000D+01 0.231700000000D+04 0.000000000000D+00
    0.200000000000D+01 0.000000000000D+00-0.791624188423D-08 0.539000000000D+03
    0.527838000000D+06 0.400000000000D+01 0.000000000000D+00 0.000000000000D+00
15 24  6  8  4  0  0.0 0.167752616107D-03 0.420641299570D-11 0.000000000000D+00
    0.910000000000D+02-0.635000000000D+02 0.489734685130D-08 0.296704940474D+01
   -0.346079468727D-05 0.156772378832D-01 0.100024044514D-04 0.515366551209D+04
    0.532800000000D+06 0.206753611565D-06-0.244822282494D+01-0.199303030968D-06
    0.935623971625D+00 0.171718750000D+03 0.131409116451D+01-0.770532095755D-08
    0.503949562951D-09 0.100000000000D+01 0.231700000000D+04 0.000000000000D+00
    0.200000000000D+01 0.000000000000D+00-0.102445483208D-07 0.910000000000D+02
    0.525618000000D+06 0.400000000000D+01 0.000000000000D+00 0.000000000000D+00
16 24  6  8  4  0  0.0-0.270272605121D-03 0.103455022327D-10 0.000000000000D+00
    0.980000000000D+02 0.379687500000D+02 0.421910431406D-08-0.145638354605D+01
    0.195577740669D-05 0.138291676994D-01 0.972673296928D-05 0.515357300949D+04
    0.532800000000D+06 0.368803739548D-06-0.113893099579D+00-0.558793544769D-08
    0.962168835223D+00 0.192375000000D+03 0.837538443592D+00-0.756102923293D-08
   -0.638240871008D-09 0.100000000000D+01 0.231700000000D+04 0.000000000000D+00
    0.200000000000D+01 0.000000000000D+00-0.102445483208D-07 0.980000000000D+02
    0.531588000000D+06 0.400000000000D+01 0.000000000000D+00 0.000000000000D+00
17 24  6  8  4  0  0.0 0.697580631822D-03-0.511590769747D-11 0.000000000000D+00
    0.280000000000D+02 0.167187500000D+03 0.394266422779D-08-0.236897218138D+01
    0.860169529915D-05 0.133944640402D-01 0.700913369656D-05 0.515374648476D+04
    0.532800000000D+06 0.217929482460D-06 0.906799935789D+00 0.122934579849D-06
    0.968901848388D+00 0.249562500000D+03-0.131929059187D+01-0.760567394971D-08
    0.342871424828D-10 0.100000000000D+01 0.231700000000D+04 0.000000000000D+00
    0.200000000000D+01 0.000000000000D+00-0.111758708954D-07 0.280000000000D+02
    0.525618000000D+06 0.400000000000D+01 0.000000000000D+00 0.000000000000D+00
